[{"OBJECT_NAME":"STARLINK-37032","OBJECT_ID":"2026-050Q","EPOCH":"2026-04-06T02:46:34.948992","MEAN_MOTION":15.81090475,"ECCENTRICITY":0.00027945,"INCLINATION":53.1565,"RA_OF_ASC_NODE":144.2702,"ARG_OF_PERICENTER":98.6962,"MEAN_ANOMALY":261.4378,"EPHEMERIS_TYPE":0,"CLASSIFICATION_TYPE":"U","NORAD_CAT_ID":68181,"ELEMENT_SET_NO":999,"REV_AT_EPOCH":481,"BSTAR":0.0022051682,"MEAN_MOTION_DOT":0.00463311,"MEAN_MOTION_DDOT":0},{"OBJECT_NAME":"STARLINK-37082","OBJECT_ID":"2026-050R","EPOCH":"2026-04-06T05:47:34.500192","MEAN_MOTION":15.809034,"ECCENTRICITY":0.00015631,"INCLINATION":53.1565,"RA_OF_ASC_NODE":143.6312,"ARG_OF_PERICENTER":81.0371,"MEAN_ANOMALY":279.0828,"EPHEMERIS_TYPE":0,"CLASSIFICATION_TYPE":"U","NORAD_CAT_ID":68182,"ELEMENT_SET_NO":999,"REV_AT_EPOCH":483,"BSTAR":0.00091472637,"MEAN_MOTION_DOT":0.00183995,"MEAN_MOTION_DDOT":0},{"OBJECT_NAME":"STARLINK-37102","OBJECT_ID":"2026-050S","EPOCH":"2026-04-06T05:46:29.676000","MEAN_MOTION":15.80908264,"ECCENTRICITY":0.00016659,"INCLINATION":53.1561,"RA_OF_ASC_NODE":143.6259,"ARG_OF_PERICENTER":70.7623,"MEAN_ANOMALY":289.358,"EPHEMERIS_TYPE":0,"CLASSIFICATION_TYPE":"U","NORAD_CAT_ID":68183,"ELEMENT_SET_NO":999,"REV_AT_EPOCH":483,"BSTAR":0.00097364047,"MEAN_MOTION_DOT":0.00196215,"MEAN_MOTION_DDOT":0},{"OBJECT_NAME":"STARLINK-36964","OBJECT_ID":"2026-050T","EPOCH":"2026-04-06T05:45:24.803424","MEAN_MOTION":15.80898653,"ECCENTRICITY":0.00012028,"INCLINATION":53.1563,"RA_OF_ASC_NODE":143.6211,"ARG_OF_PERICENTER":105.6658,"MEAN_ANOMALY":254.4498,"EPHEMERIS_TYPE":0,"CLASSIFICATION_TYPE":"U","NORAD_CAT_ID":68184,"ELEMENT_SET_NO":999,"REV_AT_EPOCH":483,"BSTAR":0.00089016212,"MEAN_MOTION_DOT":0.00178888,"MEAN_MOTION_DDOT":0},{"OBJECT_NAME":"STARLINK-37061","OBJECT_ID":"2026-050U","EPOCH":"2026-04-06T05:44:19.894560","MEAN_MOTION":15.80910992,"ECCENTRICITY":9.303e-5,"INCLINATION":53.1563,"RA_OF_ASC_NODE":143.6166,"ARG_OF_PERICENTER":98.9649,"MEAN_ANOMALY":261.1479,"EPHEMERIS_TYPE":0,"CLASSIFICATION_TYPE":"U","NORAD_CAT_ID":68185,"ELEMENT_SET_NO":999,"REV_AT_EPOCH":483,"BSTAR":0.00086054788,"MEAN_MOTION_DOT":0.0017289,"MEAN_MOTION_DDOT":0},{"OBJECT_NAME":"STARLINK-37079","OBJECT_ID":"2026-050V","EPOCH":"2026-04-03T12:28:42.632832","MEAN_MOTION":15.80793272,"ECCENTRICITY":0.0001136,"INCLINATION":53.1575,"RA_OF_ASC_NODE":157.2358,"ARG_OF_PERICENTER":74.7271,"MEAN_ANOMALY":285.3878,"EPHEMERIS_TYPE":0,"CLASSIFICATION_TYPE":"U","NORAD_CAT_ID":68186,"ELEMENT_SET_NO":999,"REV_AT_EPOCH":440,"BSTAR":0.00046237,"MEAN_MOTION_DOT":0.0009119,"MEAN_MOTION_DDOT":0},{"OBJECT_NAME":"STARLINK-37006","OBJECT_ID":"2026-050W","EPOCH":"2026-04-06T05:42:10.363680","MEAN_MOTION":15.80907928,"ECCENTRICITY":0.00014404,"INCLINATION":53.1562,"RA_OF_ASC_NODE":143.6061,"ARG_OF_PERICENTER":77.5108,"MEAN_ANOMALY":282.6076,"EPHEMERIS_TYPE":0,"CLASSIFICATION_TYPE":"U","NORAD_CAT_ID":68187,"ELEMENT_SET_NO":999,"REV_AT_EPOCH":483,"BSTAR":0.00085362969,"MEAN_MOTION_DOT":0.00171442,"MEAN_MOTION_DDOT":0},{"OBJECT_NAME":"STARLINK-36305","OBJECT_ID":"2026-050Y","EPOCH":"2026-04-06T07:11:02.739264","MEAN_MOTION":15.80916848,"ECCENTRICITY":8.703e-5,"INCLINATION":53.1562,"RA_OF_ASC_NODE":143.2793,"ARG_OF_PERICENTER":99.7969,"MEAN_ANOMALY":260.3152,"EPHEMERIS_TYPE":0,"CLASSIFICATION_TYPE":"U","NORAD_CAT_ID":68189,"ELEMENT_SET_NO":999,"REV_AT_EPOCH":474,"BSTAR":0.00085096334,"MEAN_MOTION_DOT":0.00170965,"MEAN_MOTION_DDOT":0},{"OBJECT_NAME":"STARLINK-37071","OBJECT_ID":"2026-050Z","EPOCH":"2026-04-06T05:37:51.037536","MEAN_MOTION":15.8090459,"ECCENTRICITY":0.00012723,"INCLINATION":53.1563,"RA_OF_ASC_NODE":143.5861,"ARG_OF_PERICENTER":69.9052,"MEAN_ANOMALY":290.2107,"EPHEMERIS_TYPE":0,"CLASSIFICATION_TYPE":"U","NORAD_CAT_ID":68190,"ELEMENT_SET_NO":999,"REV_AT_EPOCH":483,"BSTAR":0.00085483553,"MEAN_MOTION_DOT":0.00171663,"MEAN_MOTION_DDOT":0},{"OBJECT_NAME":"STARLINK-37091","OBJECT_ID":"2026-050AA","EPOCH":"2026-04-06T04:05:43.769472","MEAN_MOTION":15.80947846,"ECCENTRICITY":0.00011226,"INCLINATION":53.156,"RA_OF_ASC_NODE":143.8971,"ARG_OF_PERICENTER":101.4496,"MEAN_ANOMALY":258.6653,"EPHEMERIS_TYPE":0,"CLASSIFICATION_TYPE":"U","NORAD_CAT_ID":68191,"ELEMENT_SET_NO":999,"REV_AT_EPOCH":482,"BSTAR":0.0010778631,"MEAN_MOTION_DOT":0.00218251,"MEAN_MOTION_DDOT":0},{"OBJECT_NAME":"STARLINK-37098","OBJECT_ID":"2026-050AB","EPOCH":"2026-04-06T05:35:41.386560","MEAN_MOTION":15.80897993,"ECCENTRICITY":0.00012707,"INCLINATION":53.1562,"RA_OF_ASC_NODE":143.5757,"ARG_OF_PERICENTER":100.143,"MEAN_ANOMALY":259.9736,"EPHEMERIS_TYPE":0,"CLASSIFICATION_TYPE":"U","NORAD_CAT_ID":68192,"ELEMENT_SET_NO":999,"REV_AT_EPOCH":483,"BSTAR":0.00057945433,"MEAN_MOTION_DOT":0.00115339,"MEAN_MOTION_DDOT":0},{"OBJECT_NAME":"STARLINK-37090","OBJECT_ID":"2026-050AC","EPOCH":"2026-04-06T05:33:31.823712","MEAN_MOTION":15.80888765,"ECCENTRICITY":0.00014175,"INCLINATION":53.1561,"RA_OF_ASC_NODE":143.5647,"ARG_OF_PERICENTER":68.6782,"MEAN_ANOMALY":291.4392,"EPHEMERIS_TYPE":0,"CLASSIFICATION_TYPE":"U","NORAD_CAT_ID":68193,"ELEMENT_SET_NO":999,"REV_AT_EPOCH":483,"BSTAR":0.00053644386,"MEAN_MOTION_DOT":0.00106572,"MEAN_MOTION_DDOT":0},{"OBJECT_NAME":"STARLINK-37093","OBJECT_ID":"2026-050AD","EPOCH":"2026-04-06T05:38:55.833216","MEAN_MOTION":15.80901665,"ECCENTRICITY":0.00015958,"INCLINATION":53.1561,"RA_OF_ASC_NODE":143.5907,"ARG_OF_PERICENTER":110.2982,"MEAN_ANOMALY":249.8212,"EPHEMERIS_TYPE":0,"CLASSIFICATION_TYPE":"U","NORAD_CAT_ID":68194,"ELEMENT_SET_NO":999,"REV_AT_EPOCH":483,"BSTAR":0.00071118865,"MEAN_MOTION_DOT":0.0014219,"MEAN_MOTION_DDOT":0},{"OBJECT_NAME":"STARLINK-37058","OBJECT_ID":"2026-050AE","EPOCH":"2026-04-06T04:03:34.033824","MEAN_MOTION":15.80931857,"ECCENTRICITY":0.00010313,"INCLINATION":53.1562,"RA_OF_ASC_NODE":143.8868,"ARG_OF_PERICENTER":101.9477,"MEAN_ANOMALY":258.1662,"EPHEMERIS_TYPE":0,"CLASSIFICATION_TYPE":"U","NORAD_CAT_ID":68195,"ELEMENT_SET_NO":999,"REV_AT_EPOCH":326,"BSTAR":0.00081059062,"MEAN_MOTION_DOT":0.00162777,"MEAN_MOTION_DDOT":0},{"OBJECT_NAME":"YAOGAN-50 02","OBJECT_ID":"2026-051A","EPOCH":"2026-04-06T07:18:51.333984","MEAN_MOTION":13.83261347,"ECCENTRICITY":7.14e-5,"INCLINATION":141.9859,"RA_OF_ASC_NODE":340.4534,"ARG_OF_PERICENTER":269.6574,"MEAN_ANOMALY":90.4064,"EPHEMERIS_TYPE":0,"CLASSIFICATION_TYPE":"U","NORAD_CAT_ID":68196,"ELEMENT_SET_NO":999,"REV_AT_EPOCH":303,"BSTAR":0.00010841901,"MEAN_MOTION_DOT":3.07e-6,"MEAN_MOTION_DDOT":0}]
