STARLINK-37032          
1 68181U 26050Q   26096.11568228  .00463311  00000+0  22052-2 0  9993
2 68181  53.1565 144.2702 0002794  98.6962 261.4378 15.81090475  4817
STARLINK-37082          
1 68182U 26050R   26096.24137153  .00183995  00000+0  91473-3 0  9998
2 68182  53.1565 143.6312 0001563  81.0371 279.0828 15.80903400  4838
STARLINK-37102          
1 68183U 26050S   26096.24062125  .00196215  00000+0  97364-3 0  9999
2 68183  53.1561 143.6259 0001665  70.7623 289.3580 15.80908264  4835
STARLINK-36964          
1 68184U 26050T   26096.23987041  .00178888  00000+0  89016-3 0  9993
2 68184  53.1563 143.6211 0001202 105.6658 254.4498 15.80898653  4830
STARLINK-37061          
1 68185U 26050U   26096.23911915  .00172890  00000+0  86055-3 0  9998
2 68185  53.1563 143.6166 0000930  98.9649 261.1479 15.80910992  4836
STARLINK-37079          
1 68186U 26050V   26093.51993788  .00091190  00000+0  46237-3 0  9996
2 68186  53.1575 157.2358 0001136  74.7271 285.3878 15.80793272  4400
STARLINK-37006          
1 68187U 26050W   26096.23761995  .00171442  00000+0  85363-3 0  9994
2 68187  53.1562 143.6061 0001440  77.5108 282.6076 15.80907928  4837
STARLINK-36305          
1 68189U 26050Y   26096.29933726  .00170965  00000+0  85096-3 0  9997
2 68189  53.1562 143.2793 0000870  99.7969 260.3152 15.80916848  4743
STARLINK-37071          
1 68190U 26050Z   26096.23461849  .00171663  00000+0  85484-3 0  9992
2 68190  53.1563 143.5861 0001272  69.9052 290.2107 15.80904590  4837
STARLINK-37091          
1 68191U 26050AA  26096.17064548  .00218251  00000+0  10779-2 0  9990
2 68191  53.1560 143.8971 0001122 101.4496 258.6653 15.80947846  4822
STARLINK-37098          
1 68192U 26050AB  26096.23311790  .00115339  00000+0  57945-3 0  9992
2 68192  53.1562 143.5757 0001270 100.1430 259.9736 15.80897993  4836
STARLINK-37090          
1 68193U 26050AC  26096.23161833  .00106572  00000+0  53644-3 0  9995
2 68193  53.1561 143.5647 0001417  68.6782 291.4392 15.80888765  4831
STARLINK-37093          
1 68194U 26050AD  26096.23536844  .00142190  00000+0  71119-3 0  9997
2 68194  53.1561 143.5907 0001595 110.2982 249.8212 15.80901665  4837
STARLINK-37058          
1 68195U 26050AE  26096.16914391  .00162777  00000+0  81059-3 0  9994
2 68195  53.1562 143.8868 0001031 101.9477 258.1662 15.80931857  3263
YAOGAN-50 02            
1 68196U 26051A   26096.30476081  .00000307  00000+0  10842-3 0  9993
2 68196 141.9859 340.4534 0000714 269.6574  90.4064 13.83261347  3030
